{
  "type": "FeatureCollection",
  "features": [
    {
      "type": "Feature",
      "properties": {
        "norad_id": 28890,
        "name": "BEIJING 1",
        "group": "dmc",
        "lat": 7.301985806216011,
        "lon": -63.185288223058755,
        "alt_km": 675.4888183773319,
        "timestamp": "2025-12-14T05:42:18.124045+00:00",
        "meta_object_name": "BEIJING 1",
        "meta_object_id": "2005-043A",
        "meta_epoch": "2025-12-13T15:47:31.339104",
        "meta_mean_motion": 14.63368381,
        "meta_eccentricity": 0.00153874,
        "meta_inclination": 98.265,
        "meta_ra_of_asc_node": 115.1666,
        "meta_arg_of_pericenter": 138.4663,
        "meta_mean_anomaly": 221.7711,
        "meta_ephemeris_type": 0,
        "meta_classification_type": "U",
        "meta_norad_cat_id": 28890,
        "meta_element_set_no": 999,
        "meta_rev_at_epoch": 7351,
        "meta_bstar": 0.00015684358,
        "meta_mean_motion_dot": 7.63e-06,
        "meta_mean_motion_ddot": 0,
        "tle_line1": "1 28890U 05043A   25347.65800161  .00000763  00000+0  15684-3 0  9999",
        "tle_line2": "2 28890  98.2650 115.1666 0015387 138.4663 221.7711 14.63368381 73510"
      },
      "geometry": {
        "type": "Point",
        "coordinates": [
          -63.185288223058755,
          7.301985806216011
        ]
      }
    },
    {
      "type": "Feature",
      "properties": {
        "norad_id": 33320,
        "name": "HUANJING 1A (HJ-1A)",
        "group": "dmc",
        "lat": -52.0880404176711,
        "lon": -13.582969128432628,
        "alt_km": 623.6643199440623,
        "timestamp": "2025-12-14T05:42:18.124070+00:00",
        "meta_object_name": "HUANJING 1A (HJ-1A)",
        "meta_object_id": "2008-041A",
        "meta_epoch": "2025-12-13T15:22:18.642720",
        "meta_mean_motion": 14.8339626,
        "meta_eccentricity": 0.00200551,
        "meta_inclination": 97.6542,
        "meta_ra_of_asc_node": 335.9013,
        "meta_arg_of_pericenter": 31.4618,
        "meta_mean_anomaly": 328.7792,
        "meta_ephemeris_type": 0,
        "meta_classification_type": "U",
        "meta_norad_cat_id": 33320,
        "meta_element_set_no": 999,
        "meta_rev_at_epoch": 93089,
        "meta_bstar": 0.00014609116,
        "meta_mean_motion_dot": 1.151e-05,
        "meta_mean_motion_ddot": 0,
        "tle_line1": "1 33320U 08041A   25347.64049355  .00001151  00000+0  14609-3 0  9991",
        "tle_line2": "2 33320  97.6542 335.9013 0020055  31.4618 328.7792 14.83396260930894"
      },
      "geometry": {
        "type": "Point",
        "coordinates": [
          -13.582969128432628,
          -52.0880404176711
        ]
      }
    },
    {
      "type": "Feature",
      "properties": {
        "norad_id": 33321,
        "name": "HUANJING 1B (HJ-1B)",
        "group": "dmc",
        "lat": 13.758031539706776,
        "lon": 162.05025669497738,
        "alt_km": 623.7567394312327,
        "timestamp": "2025-12-14T05:42:18.124085+00:00",
        "meta_object_name": "HUANJING 1B (HJ-1B)",
        "meta_object_id": "2008-041B",
        "meta_epoch": "2025-12-13T16:00:23.082912",
        "meta_mean_motion": 14.8282418,
        "meta_eccentricity": 0.00381694,
        "meta_inclination": 97.6402,
        "meta_ra_of_asc_node": 339.6213,
        "meta_arg_of_pericenter": 72.7957,
        "meta_mean_anomaly": 287.743,
        "meta_ephemeris_type": 0,
        "meta_classification_type": "U",
        "meta_norad_cat_id": 33321,
        "meta_element_set_no": 999,
        "meta_rev_at_epoch": 93091,
        "meta_bstar": 0.0002217956,
        "meta_mean_motion_dot": 1.766e-05,
        "meta_mean_motion_ddot": 0,
        "tle_line1": "1 33321U 08041B   25347.66693383  .00001766  00000+0  22180-3 0  9995",
        "tle_line2": "2 33321  97.6402 339.6213 0038169  72.7957 287.7430 14.82824180930914"
      },
      "geometry": {
        "type": "Point",
        "coordinates": [
          162.05025669497738,
          13.758031539706776
        ]
      }
    },
    {
      "type": "Feature",
      "properties": {
        "norad_id": 33446,
        "name": "YAOGAN-4",
        "group": "dmc",
        "lat": 74.46864815035867,
        "lon": -111.72975984645232,
        "alt_km": 618.2326719911807,
        "timestamp": "2025-12-14T05:42:18.124097+00:00",
        "meta_object_name": "YAOGAN-4",
        "meta_object_id": "2008-061A",
        "meta_epoch": "2025-12-13T16:24:13.135968",
        "meta_mean_motion": 14.82686837,
        "meta_eccentricity": 0.00135092,
        "meta_inclination": 97.918,
        "meta_ra_of_asc_node": 277.7736,
        "meta_arg_of_pericenter": 320.0535,
        "meta_mean_anomaly": 39.9683,
        "meta_ephemeris_type": 0,
        "meta_classification_type": "U",
        "meta_norad_cat_id": 33446,
        "meta_element_set_no": 999,
        "meta_rev_at_epoch": 91817,
        "meta_bstar": 0.00027788174,
        "meta_mean_motion_dot": 2.191e-05,
        "meta_mean_motion_ddot": 0,
        "tle_line1": "1 33446U 08061A   25347.68348537  .00002191  00000+0  27788-3 0  9997",
        "tle_line2": "2 33446  97.9180 277.7736 0013509 320.0535  39.9683 14.82686837918178"
      },
      "geometry": {
        "type": "Point",
        "coordinates": [
          -111.72975984645232,
          74.46864815035867
        ]
      }
    },
    {
      "type": "Feature",
      "properties": {
        "norad_id": 35681,
        "name": "DEIMOS-1",
        "group": "dmc",
        "lat": 15.061866169365848,
        "lon": -29.138364022650943,
        "alt_km": 646.0917513478535,
        "timestamp": "2025-12-14T05:42:18.124109+00:00",
        "meta_object_name": "DEIMOS-1",
        "meta_object_id": "2009-041A",
        "meta_epoch": "2025-12-13T15:56:08.805120",
        "meta_mean_motion": 14.74955029,
        "meta_eccentricity": 0.00027307,
        "meta_inclination": 97.7149,
        "meta_ra_of_asc_node": 148.2242,
        "meta_arg_of_pericenter": 78.398,
        "meta_mean_anomaly": 281.7536,
        "meta_ephemeris_type": 0,
        "meta_classification_type": "U",
        "meta_norad_cat_id": 35681,
        "meta_element_set_no": 999,
        "meta_rev_at_epoch": 87953,
        "meta_bstar": 0.00017069353,
        "meta_mean_motion_dot": 1.1e-05,
        "meta_mean_motion_ddot": 0,
        "tle_line1": "1 35681U 09041A   25347.66399080  .00001100  00000+0  17069-3 0  9996",
        "tle_line2": "2 35681  97.7149 148.2242 0002730  78.3980 281.7536 14.74955029879532"
      },
      "geometry": {
        "type": "Point",
        "coordinates": [
          -29.138364022650943,
          15.061866169365848
        ]
      }
    },
    {
      "type": "Feature",
      "properties": {
        "norad_id": 35683,
        "name": "UK-DMC 2",
        "group": "dmc",
        "lat": -3.4527718469223014,
        "lon": -57.3797135288091,
        "alt_km": 646.5988624319825,
        "timestamp": "2025-12-14T05:42:18.124120+00:00",
        "meta_object_name": "UK-DMC 2",
        "meta_object_id": "2009-041C",
        "meta_epoch": "2025-12-13T15:51:26.964000",
        "meta_mean_motion": 14.75625755,
        "meta_eccentricity": 0.00014534,
        "meta_inclination": 97.8557,
        "meta_ra_of_asc_node": 122.5371,
        "meta_arg_of_pericenter": 96.1291,
        "meta_mean_anomaly": 264.0085,
        "meta_ephemeris_type": 0,
        "meta_classification_type": "U",
        "meta_norad_cat_id": 35683,
        "meta_element_set_no": 999,
        "meta_rev_at_epoch": 87920,
        "meta_bstar": 0.00026215857,
        "meta_mean_motion_dot": 1.74e-05,
        "meta_mean_motion_ddot": 0,
        "tle_line1": "1 35683U 09041C   25347.66072875  .00001740  00000+0  26216-3 0  9992",
        "tle_line2": "2 35683  97.8557 122.5371 0001453  96.1291 264.0085 14.75625755879208"
      },
      "geometry": {
        "type": "Point",
        "coordinates": [
          -57.3797135288091,
          -3.4527718469223014
        ]
      }
    },
    {
      "type": "Feature",
      "properties": {
        "norad_id": 40715,
        "name": "DMC3-FM1",
        "group": "dmc",
        "lat": -73.10674269404313,
        "lon": -118.28535943164015,
        "alt_km": 616.7175878989528,
        "timestamp": "2025-12-14T05:42:18.124131+00:00",
        "meta_object_name": "DMC3-FM1",
        "meta_object_id": "2015-032A",
        "meta_epoch": "2025-12-13T15:29:29.192064",
        "meta_mean_motion": 14.85441645,
        "meta_eccentricity": 0.00046243,
        "meta_inclination": 97.669,
        "meta_ra_of_asc_node": 214.8048,
        "meta_arg_of_pericenter": 317.2188,
        "meta_mean_anomaly": 42.8667,
        "meta_ephemeris_type": 0,
        "meta_classification_type": "U",
        "meta_norad_cat_id": 40715,
        "meta_element_set_no": 999,
        "meta_rev_at_epoch": 56236,
        "meta_bstar": 0.00012535765,
        "meta_mean_motion_dot": 1.029e-05,
        "meta_mean_motion_ddot": 0,
        "tle_line1": "1 40715U 15032A   25347.64547676  .00001029  00000+0  12536-3 0  9995",
        "tle_line2": "2 40715  97.6690 214.8048 0004624 317.2188  42.8667 14.85441645562366"
      },
      "geometry": {
        "type": "Point",
        "coordinates": [
          -118.28535943164015,
          -73.10674269404313
        ]
      }
    },
    {
      "type": "Feature",
      "properties": {
        "norad_id": 40716,
        "name": "DMC3-FM2",
        "group": "dmc",
        "lat": 14.822383809819069,
        "lon": 38.86543064441882,
        "alt_km": 616.398752304739,
        "timestamp": "2025-12-14T05:42:18.124141+00:00",
        "meta_object_name": "DMC3-FM2",
        "meta_object_id": "2015-032B",
        "meta_epoch": "2025-12-13T16:01:52.698720",
        "meta_mean_motion": 14.85445986,
        "meta_eccentricity": 0.00051744,
        "meta_inclination": 97.6748,
        "meta_ra_of_asc_node": 216.2712,
        "meta_arg_of_pericenter": 322.7335,
        "meta_mean_anomaly": 37.3521,
        "meta_ephemeris_type": 0,
        "meta_classification_type": "U",
        "meta_norad_cat_id": 40716,
        "meta_element_set_no": 999,
        "meta_rev_at_epoch": 56236,
        "meta_bstar": 0.00020595066,
        "meta_mean_motion_dot": 1.724e-05,
        "meta_mean_motion_ddot": 0,
        "tle_line1": "1 40716U 15032B   25347.66797105  .00001724  00000+0  20595-3 0  9998",
        "tle_line2": "2 40716  97.6748 216.2712 0005174 322.7335  37.3521 14.85445986562361"
      },
      "geometry": {
        "type": "Point",
        "coordinates": [
          38.86543064441882,
          14.822383809819069
        ]
      }
    },
    {
      "type": "Feature",
      "properties": {
        "norad_id": 40717,
        "name": "DMC3-FM3",
        "group": "dmc",
        "lat": 48.724753017042126,
        "lon": -150.38956019711077,
        "alt_km": 607.6035292917713,
        "timestamp": "2025-12-14T05:42:18.124152+00:00",
        "meta_object_name": "DMC3-FM3",
        "meta_object_id": "2015-032C",
        "meta_epoch": "2025-12-13T14:56:01.433184",
        "meta_mean_motion": 14.85435166,
        "meta_eccentricity": 0.00045623,
        "meta_inclination": 97.6805,
        "meta_ra_of_asc_node": 217.8607,
        "meta_arg_of_pericenter": 325.8397,
        "meta_mean_anomaly": 34.2525,
        "meta_ephemeris_type": 0,
        "meta_classification_type": "U",
        "meta_norad_cat_id": 40717,
        "meta_element_set_no": 999,
        "meta_rev_at_epoch": 56236,
        "meta_bstar": 0.00018153923,
        "meta_mean_motion_dot": 1.513e-05,
        "meta_mean_motion_ddot": 0,
        "tle_line1": "1 40717U 15032C   25347.62223881  .00001513  00000+0  18154-3 0  9994",
        "tle_line2": "2 40717  97.6805 217.8607 0004562 325.8397  34.2525 14.85435166562367"
      },
      "geometry": {
        "type": "Point",
        "coordinates": [
          -150.38956019711077,
          48.724753017042126
        ]
      }
    }
  ]
}